STARLINK-32808          
1 62863U 25022K   26068.46709945  .00015019  00000+0  51852-3 0  9991
2 62863  53.1575 130.8162 0001034  77.7173 282.3943 15.30177500 61865
TEVEL2-3                
1 63218U 25052J   26068.64540225  .00020365  00000+0  69446-3 0  9991
2 63218  97.3994 324.7775 0004761 105.7353 254.4413 15.30377031 54855
