[{"OBJECT_NAME":"STARLINK-32808","OBJECT_ID":"2025-022K","EPOCH":"2026-03-09T11:12:37.392480","MEAN_MOTION":15.301775,"ECCENTRICITY":0.00010344,"INCLINATION":53.1575,"RA_OF_ASC_NODE":130.8162,"ARG_OF_PERICENTER":77.7173,"MEAN_ANOMALY":282.3943,"EPHEMERIS_TYPE":0,"CLASSIFICATION_TYPE":"U","NORAD_CAT_ID":62863,"ELEMENT_SET_NO":999,"REV_AT_EPOCH":6186,"BSTAR":0.00051852455,"MEAN_MOTION_DOT":0.00015019,"MEAN_MOTION_DDOT":0},{"OBJECT_NAME":"TEVEL2-3","OBJECT_ID":"2025-052J","EPOCH":"2026-03-09T15:29:22.754400","MEAN_MOTION":15.30377031,"ECCENTRICITY":0.0004761,"INCLINATION":97.3994,"RA_OF_ASC_NODE":324.7775,"ARG_OF_PERICENTER":105.7353,"MEAN_ANOMALY":254.4413,"EPHEMERIS_TYPE":0,"CLASSIFICATION_TYPE":"U","NORAD_CAT_ID":63218,"ELEMENT_SET_NO":999,"REV_AT_EPOCH":5485,"BSTAR":0.00069446,"MEAN_MOTION_DOT":0.00020365,"MEAN_MOTION_DDOT":0}]
